OBJECT_NAME,OBJECT_ID,EPOCH,MEAN_MOTION,ECCENTRICITY,INCLINATION,RA_OF_ASC_NODE,ARG_OF_PERICENTER,MEAN_ANOMALY,EPHEMERIS_TYPE,CLASSIFICATION_TYPE,NORAD_CAT_ID,ELEMENT_SET_NO,REV_AT_EPOCH,BSTAR,MEAN_MOTION_DOT,MEAN_MOTION_DDOT
LEMUR-2-FINNIAN,2025-276DX,2026-06-26T03:36:06.822144,15.00460441,.00086265,97.5321,247.8587,63.2247,296.9859,0,U,66782,999,2134,.36599326E-3,.4553E-4,0
LEMUR-2-STARLIGHT,2025-276DY,2026-06-26T04:20:53.456928,14.99135300,.00147268,97.5246,247.5126,102.4206,257.8666,0,U,66783,999,3154,.61030249E-3,.7384E-4,0
LEMUR-2-TARTIFLETTE,2025-276DZ,2026-06-26T04:18:30.706848,14.99148252,.0013708,97.5249,247.5186,109.3857,250.8849,0,U,66784,999,3154,.51984737E-3,.628E-4,0
LEMUR-2-VUKASIN,2025-276EA,2026-06-26T03:58:11.139744,15.00423586,.00053482,97.5296,247.8241,101.9871,258.1953,0,U,66785,999,3149,.12705078E-3,.154E-4,0
LEMUR-2-HOTSPUR-TOM,2025-276EB,2026-06-26T04:08:41.873568,14.99048440,.00148212,97.5245,247.4912,101.5607,258.7281,0,U,66786,999,3147,.54028177E-3,.6515E-4,0
LEMUR-2-MYRA,2025-276EC,2026-06-26T03:08:20.943744,15.00364362,.00176166,97.5221,247.7182,112.6190,247.6900,0,U,66787,999,3155,.66315481E-3,.8299E-4,0
LEMUR-2 FIKRETDENGIZ,2026-004A,2026-06-26T00:12:28.006272,14.88384035,.00105466,97.8014,175.4311,108.3193,251.9172,0,U,67363,999,2459,.53283829E-3,.4888E-4,0
TWILIGHT-1 OBJECT B,2026-004B,2026-06-26T05:43:39.600192,14.87731738,.00102579,97.8064,175.6688,98.9142,261.3237,0,U,67364,999,2463,.20812116E-3,.1845E-4,0
LEMUR-2-MARIO-SOUSA,2026-004C,2026-06-26T06:14:25.371168,14.88580716,.00101131,97.7985,175.6742,108.5579,251.6737,0,U,67365,999,2464,.52124631E-3,.4804E-4,0
LEMUR-2-SONNENBLUME,2026-004E,2026-06-26T06:13:56.470368,14.88359558,.00096274,97.7984,175.6549,109.9063,250.3192,0,U,67367,999,2464,.34387903E-3,.3132E-4,0
LEMUR-2-WOBLER,2026-004F,2026-06-26T06:02:44.711232,14.88573462,.00099375,97.8036,175.7786,101.1346,259.0988,0,U,67368,999,2464,.42039879E-3,.3862E-4,0
LEMUR-2-GRAM-E-SUE,2026-004H,2026-06-26T05:49:45.591456,14.88508157,.00087139,97.7972,175.6541,111.1437,249.0712,0,U,67370,999,2464,.25169614E-3,.2286E-4,0
LEMUR-2-KATIE,2026-004AA,2026-06-26T05:17:34.827936,14.90100605,.00047373,97.8033,176.1207,74.5369,285.6371,0,U,67387,999,2465,.40607343E-3,.3871E-4,0
LEMUR-2-HCS-BAZUS,2026-004AB,2026-06-25T22:49:08.332896,14.90149435,.00042518,97.8021,175.8345,74.0114,286.1572,0,U,67388,999,2461,.65833306E-3,.632E-4,0
